GALAXY 16 (G-16)        
1 29236U 06023A   26146.56230483  .00000000  00000+0  00000+0 0  9991
2 29236   0.0156  86.4939 0003259 344.3413 276.7201  1.00264993 72756
ARIRANG-2 (KOMPSAT-2)   
1 29268U 06031A   26146.99526443  .00000705  00000+0  14093-3 0  9999
2 29268  97.8312 332.4681 0015287 136.3308  15.4786 14.64645417 58379
EUTELSAT 33F            
1 29270U 06032A   26146.44578417  .00000159  00000+0  00000+0 0  9993
2 29270   1.6075  82.4758 0003675 340.0357  15.1140  1.00275581 47088
JCSAT-3A                
1 29272U 06033A   26146.96372825 -.00000340  00000+0  00000+0 0  9991
2 29272   0.0295  59.2761 0001990 345.7598 314.4280  1.00272104 47527
KOREASAT 5 (MUGUNGWHA 5)
1 29349U 06034A   26146.96078157 -.00000353  00000+0  00000+0 0  9992
2 29349   1.7326  83.2372 0001959  13.3344 246.8850  1.00270616 41107
HINODE (SOLAR-B)        
1 29479U 06041A   26146.65549046  .00000723  00000+0  13270-3 0  9997
2 29479  98.0552 163.1256 0017385   1.5753 358.5504 14.68586124 51710
NAVSTAR 58 (USA 190)    
1 29486U 06042A   26146.07338589  .00000094  00000+0  00000+0 0  9994
2 29486  54.7075 152.2167 0106251  53.9295 318.2302  2.00571128143958
DIRECTV 9S              
1 29494U 06043A   26146.91829708 -.00000109  00000+0  00000+0 0  9993
2 29494   2.3680  81.1506 0004973 356.0792  36.6441  1.00271701 51172
OPTUS D1                
1 29495U 06043B   26146.89715032 -.00000179  00000+0  00000+0 0  9992
2 29495   2.9822  79.9092 0003825 341.2238 298.2891  1.00272034 71906
SHIJIAN-6 02A (SJ-6 02A)
1 29505U 06046A   26146.91532354  .00005919  00000+0  30600-3 0  9993
2 29505  97.6382 187.8247 0002706 181.2648 178.8579 15.16652467 69047
SHIJIAN-6 02B (SJ-6 02B)
1 29506U 06046B   26146.95220002  .00001294  00000+0  10511-3 0  9993
2 29506  97.7167 176.1420 0013155 124.8878 235.3584 15.01309173 67558
DMSP 5D-3 F17 (USA 191) 
1 29522U 06050A   26146.95626835  .00000055  00000+0  50855-4 0  9990
2 29522  98.7380 153.9610 0011205 113.9080 246.3268 14.14989057  9427
BADR-4                  
1 29526U 06051A   26146.94362781  .00000151  00000+0  00000+0 0  9990
2 29526   1.9522  81.3371 0004900 329.5227 199.7998  1.00277638 51058
NAVSTAR 59 (USA 192)    
1 29601U 06052A   26144.48591474 -.00000012  00000+0  00000+0 0  9992
2 29601  54.9373 214.9459 0085609  90.6159 270.4238  2.00556903142938
WILDBLUE-1              
1 29643U 06054A   26146.91630374 -.00000045  00000+0  00000+0 0  9999
2 29643   2.7504  80.7418 0001664 344.9568  37.4524  1.00272673 53582
LAPAN-TUBSAT            
1 29709U 07001A   26146.97536913  .00000508  00000+0  64808-4 0  9999
2 29709  98.1345 145.7225 0010675 254.0664 105.9374 14.85926283 48000
THEMIS A                
1 30580U 07004A   26146.90677680 -.00000158  00000+0  29460-1 0  9995
2 30580   8.0798 111.5427 8373022 195.0371  95.1293  0.87844181 41096
SKYNET 5A               
1 30794U 07007B   26146.81459609 -.00000268  00000+0  00000+0 0  9993
2 30794   5.2476  73.9942 0003994 358.6775 200.2035  1.00272253 70482
THEMIS D                
1 30797U 07004D   26145.26854484 -.00000146  00000+0  00000+0 0  9996
2 30797   7.4778  81.4336 8336030 227.5290 254.2022  0.87589238 40872
THEMIS E                
1 30798U 07004E   26146.92098376 -.00000163  00000+0  00000+0 0  9990
2 30798   6.1127  99.3695 8444529 211.6548 191.2906  0.88042179 65738
ANIK F3                 
1 31102U 07009A   26146.91483041  .00000003  00000+0  00000+0 0  9993
2 31102   1.1444  84.0912 0002826 342.1866  28.8382  1.00273029 46358
HAIYANG-1B              
1 31113U 07010A   26146.95895454  .00000102  00000+0  54637-4 0  9996
2 31113  98.3486 129.6287 0012221 264.2546  95.7244 14.31020993997593
SAUDISAT 3              
1 31118U 07012B   26146.83791649  .00000291  00000+0  55152-4 0  9993
2 31118  98.1447  97.2264 0013433 298.2590  61.7260 14.71410584 24607
SAUDICOMSAT 7           
1 31119U 07012C   26146.88733215  .00000519  00000+0  10224-3 0  9997
2 31119  98.3766 120.5848 0054368 263.1533  96.3482 14.66085373 19312
SAUDICOMSAT 6           
1 31121U 07012E   26146.88196191  .00000734  00000+0  14943-3 0  9997
2 31121  98.4084 114.0046 0072594  34.0339 326.5487 14.62525062 17071
SAUDICOMSAT 5           
1 31124U 07012H   26146.89038359  .00000544  00000+0  10242-3 0  9999
2 31124  98.3479 121.3400 0047073 191.0786 168.9386 14.68128397 20470
SAUDICOMSAT 3           
1 31125U 07012J   26146.88786348  .00000796  00000+0  13791-3 0  9998
2 31125  98.3133 121.8883 0040318 118.3653 242.1627 14.70665306 21695
SAUDICOMSAT 4           
1 31127U 07012L   26146.83787914  .00000652  00000+0  12967-3 0  9990
2 31127  98.3971 118.9750 0062677 326.1896  33.5316 14.64483931 18167
ASTRA 1L                
1 31306U 07016A   26146.86226299 -.00000180  00000+0  00000+0 0  9998
2 31306   1.2688  81.7394 0005243 352.4360  96.1680  1.00272844 44779
GALAXY 17 (G-17)        
1 31307U 07016B   26146.92150376 -.00000202  00000+0  00000+0 0  9993
2 31307   2.9207  80.1609 0004666   2.9259  48.1417  1.00272541 69595
YAOGAN-2                
1 31490U 07019A   26146.62763512  .00000723  00000+0  96746-4 0  9992
2 31490  98.2673   6.5082 0020251 347.3146  12.7554 14.82637353 24421
GLOBALSTAR M069         
1 31573U 07020C   26146.88781275 -.00000053  00000+0  36430-3 0  9990
2 31573  52.0044 312.4111 0002670 104.9462  42.2382 12.23470636876196
GLOBALSTAR M072         
1 31574U 07020D   26146.31538078 -.00000067  00000+0  23394-3 0  9990
2 31574  51.9895 158.4746 0001363 268.5976 104.2837 11.91658283872376
COSMO-SKYMED 1          
1 31598U 07023A   26146.94691898  .00003465  00000+0  30641-3 0  9995
2 31598  97.8862 338.6258 0001819  94.1988 265.9442 14.96984748 26618
TERRASAR-X              
1 31698U 07026A   26145.33543143  .00000434  00000+0  23861-4 0  9990
2 31698  97.4456 153.3686 0001923  87.6040 272.5415 15.19148941 49750
COSMOS 2428             
1 31792U 07029A   26146.97572851 -.00000233  00000+0 -99238-4 0  9997
2 31792  70.9394  39.0133 0007543 175.2552 184.8642 14.12934002975157
SAR-LUPE 2              
1 31797U 07030A   26146.95651017  .00013428  00000+0  26992-3 0  9998
2 31797  98.1018 248.8218 0012528 179.1555 180.9716 15.46704133 53655
WORLDVIEW-1 (WV-1)      
1 32060U 07041A   26146.82397826  .00007030  00000+0  28751-3 0  9992
2 32060  97.3925 266.8806 0004015 117.6757 242.4889 15.24648949 39627
INTELSAT 11 (IS-11)     
1 32253U 07044B   26146.62552299  .00000060  00000+0  00000+0 0  9993
2 32253   3.5114  78.9229 0000888  76.3843 174.5962  0.99049640 68237
WGS F1 (USA 195)        
1 32258U 07046A   26146.35956138 -.00000265  00000+0  00000+0 0  9998
2 32258   0.0591  95.9796 0000366 300.6214 294.2727  1.00271744 52111
NAVSTAR 60 (USA 196)    
1 32260U 07047A   26146.78508920 -.00000050  00000+0  00000+0 0  9993
2 32260  54.0801  80.9474 0165906  86.9698 274.8979  2.00556339136388
GLOBALSTAR M066         
1 32265U 07048C   26146.94437049 -.00000072  00000+0  19434-3 0  9999
2 32265  51.9566 118.8931 0005049 357.0409  19.5233 12.30388916857610
COSMOS 2433 [GLONASS-M] 
1 32275U 07052A   26144.45276463 -.00000045  00000+0  00000+0 0  9995
2 32275  65.5906 316.7315 0001789 184.8625 175.1353  2.13103983144551
COSMOS 2432 [GLONASS-M] 
1 32276U 07052B   26144.76433933 -.00000047  00000+0  00000+0 0  9999
2 32276  65.6066 316.8488 0008019 335.3447 207.6526  2.13103192144588
YAOGAN-3                
1 32289U 07055A   26146.98384802  .00002701  00000+0  28102-3 0  9997
2 32289  97.8174 177.0721 0001984  95.5609 264.5836 14.90688190  2713
SKYNET 5B               
1 32294U 07056B   26146.94336781  .00000144  00000+0  00000+0 0  9995
2 32294   5.1998  73.7519 0003852 347.0481 188.4134  1.00269832 67981
ASTRA 4A                
1 32299U 07057A   26146.93929446  .00000037  00000+0  00000+0 0  9997
2 32299   0.0149 317.5628 0002453 107.7202 162.1805  1.00269469 51439
COSMO-SKYMED 2          
1 32376U 07059A   26146.96273340  .00000439  00000+0  61706-4 0  9994
2 32376  97.8885 330.8690 0001470  88.2849 271.8532 14.82150778998858
RADARSAT-2              
1 32382U 07061A   26146.97658389 -.00000056  00000+0 -46954-5 0  9991
2 32382  98.5785 154.2124 0001283  85.4426 274.6903 14.29982925962924
NAVSTAR 61 (USA 199)    
1 32384U 07062A   26146.84967097 -.00000082  00000+0  00000+0 0  9993
2 32384  55.0494 275.0101 0035325 164.2474   9.4538  2.00558846135085
HORIZONS-2              
1 32388U 07063B   26146.92375711 -.00000249  00000+0  00000+0 0  9998
2 32388   2.5494  80.8807 0004022 345.7270  76.6569  1.00272196 67603
COSMOS 2434 [GLONASS-M] 
1 32393U 07065A   26145.16821914  .00000048  00000+0  00000+0 0  9998
2 32393  64.3161 192.6922 0001051 357.7939  81.0284  2.13101329143287
COSMOS 2436 [GLONASS-M] 
1 32395U 07065C   26142.17704934  .00000025  00000+0  00000+0 0  9995
2 32395  64.3244 192.8648 0017121 356.1086  80.4224  2.13100136143179
THURAYA-3               
1 32404U 08001A   26142.79330588 -.00000299  00000+0  00000+0 0  9999
2 32404   5.9489  35.7739 0003059 119.6380 108.9740  1.00211708 67236
THOR 5                  
1 32487U 08006A   26146.93825446 -.00000004  00000+0  00000+0 0  9991
2 32487   0.0241 259.9054 0002704 175.0183 146.6170  1.00273959 67100
AMC-14                  
1 32708U 08011A   26144.73974218  .00000000  00000+0  00000+0 0  9996
2 32708  23.9746  20.7664 0048303  90.0743  96.0893  1.00349679 67938
NAVSTAR 62 (USA 201)    
1 32711U 08012A   26146.19974396  .00000093  00000+0  00000+0 0  9992
2 32711  54.4940 150.8030 0210749 247.5583 110.2233  2.00571882133312
DIRECTV 11              
1 32729U 08013A   26146.56221816 -.00000123  00000+0  00000+0 0  9990
2 32729   0.0047 118.8586 0000469 263.4685 325.0142  1.00272675 45372
ICO G1                  
1 32763U 08016A   26146.36066587 -.00000172  00000+0  00000+0 0  9995
2 32763   5.5330  36.2104 0002178  14.0981 230.6051  1.00271018 66320
